CCSDS_OMM_VERS = 2.0
CREATION_DATE  = 
ORIGINATOR     = 

OBJECT_NAME    = UNKNOWN
OBJECT_ID      = 
CENTER_NAME    = EARTH
REF_FRAME      = TEME
TIME_SYSTEM    = UTC
MEAN_ELEMENT_THEORY = SGP/SGP4

EPOCH          = 2026-03-19T06:24:33.604704
MEAN_MOTION    = 14.47315873
ECCENTRICITY   = .005166
INCLINATION    = 99.0867
RA_OF_ASC_NODE = 90.0704
ARG_OF_PERICENTER = 230.9622
MEAN_ANOMALY   = 143.9650

EPHEMERIS_TYPE = 0
CLASSIFICATION_TYPE = U
NORAD_CAT_ID   = 87211
ELEMENT_SET_NO = 999
REV_AT_EPOCH   = 72173
BSTAR          = .65631E-3
MEAN_MOTION_DOT = .2391E-4
MEAN_MOTION_DDOT = 0

CCSDS_OMM_VERS = 2.0
CREATION_DATE  = 
ORIGINATOR     = 

OBJECT_NAME    = UNKNOWN
OBJECT_ID      = 
CENTER_NAME    = EARTH
REF_FRAME      = TEME
TIME_SYSTEM    = UTC
MEAN_ELEMENT_THEORY = SGP/SGP4

EPOCH          = 2026-03-19T23:17:30.850080
MEAN_MOTION    = 13.84320085
ECCENTRICITY   = .0067638
INCLINATION    = 100.3274
RA_OF_ASC_NODE = 92.2045
ARG_OF_PERICENTER = 4.7415
MEAN_ANOMALY   = 355.4362

EPHEMERIS_TYPE = 0
CLASSIFICATION_TYPE = U
NORAD_CAT_ID   = 87214
ELEMENT_SET_NO = 999
REV_AT_EPOCH   = 61369
BSTAR          = .15225E-2
MEAN_MOTION_DOT = .168E-4
MEAN_MOTION_DDOT = 0

CCSDS_OMM_VERS = 2.0
CREATION_DATE  = 
ORIGINATOR     = 

OBJECT_NAME    = UNKNOWN
OBJECT_ID      = 
CENTER_NAME    = EARTH
REF_FRAME      = TEME
TIME_SYSTEM    = UTC
MEAN_ELEMENT_THEORY = SGP/SGP4

EPOCH          = 2026-03-19T10:22:41.253024
MEAN_MOTION    = 13.91849296
ECCENTRICITY   = .0103105
INCLINATION    = 99.2394
RA_OF_ASC_NODE = 138.6446
ARG_OF_PERICENTER = 23.4741
MEAN_ANOMALY   = 352.6088

EPHEMERIS_TYPE = 0
CLASSIFICATION_TYPE = U
NORAD_CAT_ID   = 87237
ELEMENT_SET_NO = 999
REV_AT_EPOCH   = 62521
BSTAR          = .25736E-3
MEAN_MOTION_DOT = .298E-5
MEAN_MOTION_DDOT = 0

CCSDS_OMM_VERS = 2.0
CREATION_DATE  = 
ORIGINATOR     = 

OBJECT_NAME    = UNKNOWN
OBJECT_ID      = 
CENTER_NAME    = EARTH
REF_FRAME      = TEME
TIME_SYSTEM    = UTC
MEAN_ELEMENT_THEORY = SGP/SGP4

EPOCH          = 2026-03-21T11:46:04.418688
MEAN_MOTION    = 14.54212152
ECCENTRICITY   = .0021544
INCLINATION    = 82.8762
RA_OF_ASC_NODE = 358.8498
ARG_OF_PERICENTER = 80.1548
MEAN_ANOMALY   = 280.2083

EPHEMERIS_TYPE = 0
CLASSIFICATION_TYPE = U
NORAD_CAT_ID   = 87239
ELEMENT_SET_NO = 999
REV_AT_EPOCH   = 64221
BSTAR          = .30071E-2
MEAN_MOTION_DOT = .12801E-3
MEAN_MOTION_DDOT = 0

CCSDS_OMM_VERS = 2.0
CREATION_DATE  = 
ORIGINATOR     = 

OBJECT_NAME    = UNKNOWN
OBJECT_ID      = 
CENTER_NAME    = EARTH
REF_FRAME      = TEME
TIME_SYSTEM    = UTC
MEAN_ELEMENT_THEORY = SGP/SGP4

EPOCH          = 2026-03-21T13:51:50.254272
MEAN_MOTION    = 14.16827485
ECCENTRICITY   = .042487
INCLINATION    = 65.6395
RA_OF_ASC_NODE = 143.2631
ARG_OF_PERICENTER = 71.5354
MEAN_ANOMALY   = 0.3609

EPHEMERIS_TYPE = 0
CLASSIFICATION_TYPE = U
NORAD_CAT_ID   = 87245
ELEMENT_SET_NO = 999
REV_AT_EPOCH   = 62820
BSTAR          = .95623E-3
MEAN_MOTION_DOT = .4585E-4
MEAN_MOTION_DDOT = 0

CCSDS_OMM_VERS = 2.0
CREATION_DATE  = 
ORIGINATOR     = 

OBJECT_NAME    = UNKNOWN
OBJECT_ID      = 
CENTER_NAME    = EARTH
REF_FRAME      = TEME
TIME_SYSTEM    = UTC
MEAN_ELEMENT_THEORY = SGP/SGP4

EPOCH          = 2026-03-21T03:09:22.145184
MEAN_MOTION    = 14.23388537
ECCENTRICITY   = .0420193
INCLINATION    = 65.7558
RA_OF_ASC_NODE = 331.5151
ARG_OF_PERICENTER = 21.6645
MEAN_ANOMALY   = 340.1642

EPHEMERIS_TYPE = 0
CLASSIFICATION_TYPE = U
NORAD_CAT_ID   = 87271
ELEMENT_SET_NO = 999
REV_AT_EPOCH   = 62636
BSTAR          = .17149E-2
MEAN_MOTION_DOT = .9715E-4
MEAN_MOTION_DDOT = 0

CCSDS_OMM_VERS = 2.0
CREATION_DATE  = 
ORIGINATOR     = 

OBJECT_NAME    = UNKNOWN
OBJECT_ID      = 
CENTER_NAME    = EARTH
REF_FRAME      = TEME
TIME_SYSTEM    = UTC
MEAN_ELEMENT_THEORY = SGP/SGP4

EPOCH          = 2026-03-21T10:47:16.721376
MEAN_MOTION    = 13.48656135
ECCENTRICITY   = .0126394
INCLINATION    = 64.6179
RA_OF_ASC_NODE = 351.2186
ARG_OF_PERICENTER = 241.7762
MEAN_ANOMALY   = 117.0468

EPHEMERIS_TYPE = 0
CLASSIFICATION_TYPE = U
NORAD_CAT_ID   = 87280
ELEMENT_SET_NO = 999
REV_AT_EPOCH   = 54716
BSTAR          = .69106E-3
MEAN_MOTION_DOT = .369E-5
MEAN_MOTION_DDOT = 0

CCSDS_OMM_VERS = 2.0
CREATION_DATE  = 
ORIGINATOR     = 

OBJECT_NAME    = UNKNOWN
OBJECT_ID      = 
CENTER_NAME    = EARTH
REF_FRAME      = TEME
TIME_SYSTEM    = UTC
MEAN_ELEMENT_THEORY = SGP/SGP4

EPOCH          = 2026-03-20T20:27:59.732352
MEAN_MOTION    = 14.19755791
ECCENTRICITY   = .042789
INCLINATION    = 65.8948
RA_OF_ASC_NODE = 244.0977
ARG_OF_PERICENTER = 306.8457
MEAN_ANOMALY   = 49.4096

EPHEMERIS_TYPE = 0
CLASSIFICATION_TYPE = U
NORAD_CAT_ID   = 87293
ELEMENT_SET_NO = 999
REV_AT_EPOCH   = 62791
BSTAR          = .67888E-3
MEAN_MOTION_DOT = .3529E-4
MEAN_MOTION_DDOT = 0

CCSDS_OMM_VERS = 2.0
CREATION_DATE  = 
ORIGINATOR     = 

OBJECT_NAME    = UNKNOWN
OBJECT_ID      = 
CENTER_NAME    = EARTH
REF_FRAME      = TEME
TIME_SYSTEM    = UTC
MEAN_ELEMENT_THEORY = SGP/SGP4

EPOCH          = 2026-03-14T10:29:25.341504
MEAN_MOTION    = 13.99814165
ECCENTRICITY   = .0026085
INCLINATION    = 100.1009
RA_OF_ASC_NODE = 70.1924
ARG_OF_PERICENTER = 49.6145
MEAN_ANOMALY   = 310.7287

EPHEMERIS_TYPE = 0
CLASSIFICATION_TYPE = U
NORAD_CAT_ID   = 87300
ELEMENT_SET_NO = 999
REV_AT_EPOCH   = 62594
BSTAR          = .10112E-2
MEAN_MOTION_DOT = .1435E-4
MEAN_MOTION_DDOT = 0

CCSDS_OMM_VERS = 2.0
CREATION_DATE  = 
ORIGINATOR     = 

OBJECT_NAME    = UNKNOWN
OBJECT_ID      = 
CENTER_NAME    = EARTH
REF_FRAME      = TEME
TIME_SYSTEM    = UTC
MEAN_ELEMENT_THEORY = SGP/SGP4

EPOCH          = 2026-03-20T09:43:06.975840
MEAN_MOTION    = 14.75869332
ECCENTRICITY   = .0016124
INCLINATION    = 74.0169
RA_OF_ASC_NODE = 129.6963
ARG_OF_PERICENTER = 71.7700
MEAN_ANOMALY   = 288.5227

EPHEMERIS_TYPE = 0
CLASSIFICATION_TYPE = U
NORAD_CAT_ID   = 87304
ELEMENT_SET_NO = 999
REV_AT_EPOCH   = 66088
BSTAR          = .16659E-3
MEAN_MOTION_DOT = .1112E-4
MEAN_MOTION_DDOT = 0

CCSDS_OMM_VERS = 2.0
CREATION_DATE  = 
ORIGINATOR     = 

OBJECT_NAME    = UNKNOWN
OBJECT_ID      = 
CENTER_NAME    = EARTH
REF_FRAME      = TEME
TIME_SYSTEM    = UTC
MEAN_ELEMENT_THEORY = SGP/SGP4

EPOCH          = 2026-03-21T01:10:39.490752
MEAN_MOTION    = 13.70485786
ECCENTRICITY   = .0422066
INCLINATION    = 66.5917
RA_OF_ASC_NODE = 209.6813
ARG_OF_PERICENTER = 351.7640
MEAN_ANOMALY   = 7.6639

EPHEMERIS_TYPE = 0
CLASSIFICATION_TYPE = U
NORAD_CAT_ID   = 87320
ELEMENT_SET_NO = 999
REV_AT_EPOCH   = 60721
BSTAR          = .4881E-3
MEAN_MOTION_DOT = .738E-5
MEAN_MOTION_DDOT = 0

CCSDS_OMM_VERS = 2.0
CREATION_DATE  = 
ORIGINATOR     = 

OBJECT_NAME    = UNKNOWN
OBJECT_ID      = 
CENTER_NAME    = EARTH
REF_FRAME      = TEME
TIME_SYSTEM    = UTC
MEAN_ELEMENT_THEORY = SGP/SGP4

EPOCH          = 2026-03-21T11:55:24.052224
MEAN_MOTION    = 14.10819096
ECCENTRICITY   = .0065073
INCLINATION    = 90.0053
RA_OF_ASC_NODE = 271.7129
ARG_OF_PERICENTER = 287.3944
MEAN_ANOMALY   = 72.0132

EPHEMERIS_TYPE = 0
CLASSIFICATION_TYPE = U
NORAD_CAT_ID   = 87334
ELEMENT_SET_NO = 999
REV_AT_EPOCH   = 40055
BSTAR          = .13057E-1
MEAN_MOTION_DOT = .23911E-3
MEAN_MOTION_DDOT = 0

