UNKNOWN                 
1 87211U          26078.26705561  .00002391  00000+0  65631-3 0  9992
2 87211  99.0867  90.0704 0051660 230.9622 143.9650 14.47315873721733
UNKNOWN                 
1 87214U          26078.97049595  .00001680  00000+0  15225-2 0  9994
2 87214 100.3274  92.2045 0067638   4.7415 355.4362 13.84320085613691
UNKNOWN                 
1 87237U          26078.43242191  .00000298  00000+0  25736-3 0  9990
2 87237  99.2394 138.6446 0103105  23.4741 352.6088 13.91849296625218
UNKNOWN                 
1 87239U          26080.49032892  .00012801  00000+0  30071-2 0  9996
2 87239  82.8762 358.8498 0021544  80.1548 280.2083 14.54212152642216
UNKNOWN                 
1 87245U          26080.57766498  .00004585  00000+0  95623-3 0  9993
2 87245  65.6395 143.2631 0424870  71.5354   0.3609 14.16827485628204
UNKNOWN                 
1 87271U          26080.13150631  .00009715  00000+0  17149-2 0  9996
2 87271  65.7558 331.5151 0420193  21.6645 340.1642 14.23388537626362
UNKNOWN                 
1 87280U          26080.44949909  .00000369  00000+0  69106-3 0  9991
2 87280  64.6179 351.2186 0126394 241.7762 117.0468 13.48656135547162
UNKNOWN                 
1 87293U          26079.85277468  .00003529  00000+0  67888-3 0  9998
2 87293  65.8948 244.0977 0427890 306.8457  49.4096 14.19755791627913
UNKNOWN                 
1 87300U          26073.43709886  .00001435  00000+0  10112-2 0  9990
2 87300 100.1009  70.1924 0026085  49.6145 310.7287 13.99814165625945
UNKNOWN                 
1 87304U          26079.40494185  .00001112  00000+0  16659-3 0  9995
2 87304  74.0169 129.6963 0016124  71.7700 288.5227 14.75869332660883
UNKNOWN                 
1 87320U          26080.04906818  .00000738  00000+0  48810-3 0  9993
2 87320  66.5917 209.6813 0422066 351.7640   7.6639 13.70485786607217
UNKNOWN                 
1 87334U          26080.49680616  .00023911  00000+0  13057-1 0  9993
2 87334  90.0053 271.7129 0065073 287.3944  72.0132 14.10819096400559
